[{"OBJECT_NAME":"MISRSAT-2","OBJECT_ID":"2023-187B","EPOCH":"2026-03-09T22:47:39.416064","MEAN_MOTION":14.82973082,"ECCENTRICITY":0.00124357,"INCLINATION":97.9302,"RA_OF_ASC_NODE":151.6612,"ARG_OF_PERICENTER":109.0533,"MEAN_ANOMALY":251.2029,"EPHEMERIS_TYPE":0,"CLASSIFICATION_TYPE":"U","NORAD_CAT_ID":58497,"ELEMENT_SET_NO":999,"REV_AT_EPOCH":12233,"BSTAR":0.00025174418,"MEAN_MOTION_DOT":1.993e-5,"MEAN_MOTION_DDOT":0},{"OBJECT_NAME":"RESURS O1","OBJECT_ID":"1994-074A","EPOCH":"2026-03-09T14:58:22.947744","MEAN_MOTION":14.84942467,"ECCENTRICITY":0.0002035,"INCLINATION":97.6716,"RA_OF_ASC_NODE":90.8465,"ARG_OF_PERICENTER":78.6893,"MEAN_ANOMALY":281.4551,"EPHEMERIS_TYPE":0,"CLASSIFICATION_TYPE":"U","NORAD_CAT_ID":23342,"ELEMENT_SET_NO":999,"REV_AT_EPOCH":68915,"BSTAR":0.00012801,"MEAN_MOTION_DOT":1.039e-5,"MEAN_MOTION_DDOT":0}]
